start=new Date('2022-11-13T00:00:00.000Z').valueOf();
sats=[{"REV_AT_EPOCH":"8441","EPHEMERIS_TYPE":"0","MEAN_MOTION":"15.06422770","EPOCH":"2022-11-12T17:02:45.064320","DECAY_DATE":null,"RA_OF_ASC_NODE":"31.8816","ARG_OF_PERICENTER":"54.4445","CLASSIFICATION_TYPE":"U","GP_ID":"217585712","LAUNCH_DATE":"2021-05-04","SITE":"AFETR","ECCENTRICITY":"0.00022100","RCS_SIZE":"MEDIUM","MEAN_ANOMALY":"305.6750","TLE_LINE2":"2 48387  53.0546  31.8816 0002210  54.4445 305.6750 15.06422770 84410","OBJECT_ID":"2021-038AL","OBJECT_NAME":"STARLINK-2600","FILE":"3652635","CENTER_NAME":"EARTH","COUNTRY_CODE":"US","MEAN_MOTION_DDOT":"0.0000000000000","MEAN_MOTION_DOT":"0.00010418","ELEMENT_SET_NO":"999","OBJECT_TYPE":"PAYLOAD","BSTAR":"0.00071683000000","INCLINATION":"53.0546","SEMIMAJOR_AXIS":"6925.279","PERIOD":"95.591","TLE_LINE1":"1 48387U 21038AL  22316.71024380  .00010418  00000-0  71683-3 0  9995","PERIAPSIS":"545.613","NORAD_CAT_ID":"48387","APOAPSIS":"548.674","TIME_SYSTEM":"UTC","REF_FRAME":"TEME","MEAN_ELEMENT_THEORY":"SGP4"},{"RCS_SIZE":"LARGE","TLE_LINE2":"2 48388  53.0555  32.8132 0001327  77.4918 282.6219 15.06413428 84976","MEAN_ANOMALY":"282.6219","GP_ID":"217562758","LAUNCH_DATE":"2021-05-04","ECCENTRICITY":"0.00013270","SITE":"AFETR","RA_OF_ASC_NODE":"32.8132","EPOCH":"2022-11-12T12:10:49.043712","DECAY_DATE":null,"CLASSIFICATION_TYPE":"U","ARG_OF_PERICENTER":"77.4918","EPHEMERIS_TYPE":"0","REV_AT_EPOCH":"8497","MEAN_MOTION":"15.06413428","NORAD_CAT_ID":"48388","PERIAPSIS":"546.253","TLE_LINE1":"1 48388U 21038AM  22316.50751208  .00008122  00000-0  56333-3 0  9993","REF_FRAME":"TEME","MEAN_ELEMENT_THEORY":"SGP4","TIME_SYSTEM":"UTC","APOAPSIS":"548.091","PERIOD":"95.591","SEMIMAJOR_AXIS":"6925.307","INCLINATION":"53.0555","OBJECT_TYPE":"PAYLOAD","ELEMENT_SET_NO":"999","BSTAR":"0.00056333000000","FILE":"3652513","OBJECT_NAME":"STARLINK-2594","OBJECT_ID":"2021-038AM","MEAN_MOTION_DOT":"0.00008122","MEAN_MOTION_DDOT":"0.0000000000000","COUNTRY_CODE":"US","CENTER_NAME":"EARTH"},{"PERIOD":"95.592","SEMIMAJOR_AXIS":"6925.347","TLE_LINE1":"1 48389U 21038AN  22316.62682363  .00003174  00000-0  23190-3 0  9999","NORAD_CAT_ID":"48389","PERIAPSIS":"546.161","APOAPSIS":"548.263","MEAN_ELEMENT_THEORY":"SGP4","REF_FRAME":"TEME","TIME_SYSTEM":"UTC","OBJECT_NAME":"STARLINK-1904","OBJECT_ID":"2021-038AN","FILE":"3652635","COUNTRY_CODE":"US","CENTER_NAME":"EARTH","MEAN_MOTION_DOT":"0.00003174","MEAN_MOTION_DDOT":"0.0000000000000","INCLINATION":"53.0560","BSTAR":"0.00023190000000","OBJECT_TYPE":"PAYLOAD","ELEMENT_SET_NO":"999","GP_ID":"217586705","LAUNCH_DATE":"2021-05-04","ECCENTRICITY":"0.00015180","SITE":"AFETR","RCS_SIZE":"LARGE","MEAN_ANOMALY":"282.1074","TLE_LINE2":"2 48389  53.0560  27.2740 0001518  78.0085 282.1074 15.06400529 84466","EPHEMERIS_TYPE":"0","REV_AT_EPOCH":"8446","MEAN_MOTION":"15.06400529","DECAY_DATE":null,"EPOCH":"2022-11-12T15:02:37.561632","RA_OF_ASC_NODE":"27.2740","CLASSIFICATION_TYPE":"U","ARG_OF_PERICENTER":"78.0085"},{"FILE":"3652635","OBJECT_ID":"2021-038AP","OBJECT_NAME":"STARLINK-2586","MEAN_MOTION_DOT":"0.00003836","MEAN_MOTION_DDOT":"0.0000000000000","COUNTRY_CODE":"US","CENTER_NAME":"EARTH","INCLINATION":"53.0568","ELEMENT_SET_NO":"999","OBJECT_TYPE":"PAYLOAD","BSTAR":"0.00027616000000","PERIOD":"95.591","SEMIMAJOR_AXIS":"6925.310","NORAD_CAT_ID":"48390","PERIAPSIS":"546.101","TLE_LINE1":"1 48390U 21038AP  22316.88946637  .00003836  00000-0  27616-3 0  9998","MEAN_ELEMENT_THEORY":"SGP4","REF_FRAME":"TEME","TIME_SYSTEM":"UTC","APOAPSIS":"548.249","EPHEMERIS_TYPE":"0","REV_AT_EPOCH":"8572","MEAN_MOTION":"15.06412569","RA_OF_ASC_NODE":"26.0989","DECAY_DATE":null,"EPOCH":"2022-11-12T21:20:49.894368","CLASSIFICATION_TYPE":"U","ARG_OF_PERICENTER":"73.7297","GP_ID":"217585963","LAUNCH_DATE":"2021-05-04","ECCENTRICITY":"0.00015510","SITE":"AFETR","RCS_SIZE":"LARGE","TLE_LINE2":"2 48390  53.0568  26.0989 0001551  73.7297 286.3863 15.06412569 85721","MEAN_ANOMALY":"286.3863"},{"ARG_OF_PERICENTER":"55.8596","CLASSIFICATION_TYPE":"U","RA_OF_ASC_NODE":"27.6116","DECAY_DATE":null,"EPOCH":"2022-11-12T13:17:49.819776","MEAN_MOTION":"15.06414431","REV_AT_EPOCH":"8567","EPHEMERIS_TYPE":"0","TLE_LINE2":"2 48391  53.0540  27.6116 0001633  55.8596 304.2548 15.06414431 85679","MEAN_ANOMALY":"304.2548","RCS_SIZE":"LARGE","SITE":"AFETR","ECCENTRICITY":"0.00016330","LAUNCH_DATE":"2021-05-04","GP_ID":"217529635","ELEMENT_SET_NO":"999","OBJECT_TYPE":"PAYLOAD","BSTAR":"0.00070444000000","INCLINATION":"53.0540","MEAN_MOTION_DOT":"0.00010231","MEAN_MOTION_DDOT":"0.0000000000000","CENTER_NAME":"EARTH","COUNTRY_CODE":"US","FILE":"3652392","OBJECT_ID":"2021-038AQ","OBJECT_NAME":"STARLINK-2607","TIME_SYSTEM":"UTC","REF_FRAME":"TEME","MEAN_ELEMENT_THEORY":"SGP4","APOAPSIS":"548.300","PERIAPSIS":"546.038","NORAD_CAT_ID":"48391","TLE_LINE1":"1 48391U 21038AQ  22316.55404884  .00010231  00000-0  70444-3 0  9990","SEMIMAJOR_AXIS":"6925.304","PERIOD":"95.591"},{"MEAN_MOTION":"15.06394287","REV_AT_EPOCH":"8569","EPHEMERIS_TYPE":"0","ARG_OF_PERICENTER":"108.0147","CLASSIFICATION_TYPE":"U","RA_OF_ASC_NODE":"27.0215","EPOCH":"2022-11-12T16:23:35.754144","DECAY_DATE":null,"SITE":"AFETR","ECCENTRICITY":"0.00012830","LAUNCH_DATE":"2021-05-04","GP_ID":"217586965","TLE_LINE2":"2 48392  53.0540  27.0215 0001283 108.0147 252.0982 15.06394287 85698","MEAN_ANOMALY":"252.0982","RCS_SIZE":"LARGE","MEAN_MOTION_DDOT":"0.0000000000000","MEAN_MOTION_DOT":"0.00003229","CENTER_NAME":"EARTH","COUNTRY_CODE":"US","FILE":"3652635","OBJECT_NAME":"STARLINK-2605","OBJECT_ID":"2021-038AR","ELEMENT_SET_NO":"999","OBJECT_TYPE":"PAYLOAD","BSTAR":"0.00023557000000","INCLINATION":"53.0540","SEMIMAJOR_AXIS":"6925.366","PERIOD":"95.593","TIME_SYSTEM":"UTC","REF_FRAME":"TEME","MEAN_ELEMENT_THEORY":"SGP4","APOAPSIS":"548.120","PERIAPSIS":"546.343","NORAD_CAT_ID":"48392","TLE_LINE1":"1 48392U 21038AR  22316.68305271  .00003229  00000-0  23557-3 0  9997"},{"SEMIMAJOR_AXIS":"6925.351","PERIOD":"95.592","PERIAPSIS":"545.916","NORAD_CAT_ID":"48393","TLE_LINE1":"1 48393U 21038AS  22316.61302375  .00002785  00000-0  20577-3 0  9998","TIME_SYSTEM":"UTC","MEAN_ELEMENT_THEORY":"SGP4","REF_FRAME":"TEME","APOAPSIS":"548.516","FILE":"3652635","OBJECT_NAME":"STARLINK-2602","OBJECT_ID":"2021-038AS","MEAN_MOTION_DDOT":"0.0000000000000","MEAN_MOTION_DOT":"0.00002785","CENTER_NAME":"EARTH","COUNTRY_CODE":"US","ELEMENT_SET_NO":"999","OBJECT_TYPE":"PAYLOAD","BSTAR":"0.00020577000000","INCLINATION":"53.0550","LAUNCH_DATE":"2021-05-04","GP_ID":"217587206","SITE":"AFETR","ECCENTRICITY":"0.00018770","RCS_SIZE":"LARGE","TLE_LINE2":"2 48393  53.0550  27.3300 0001877  52.4195 307.6964 15.06399131 85681","MEAN_ANOMALY":"307.6964","REV_AT_EPOCH":"8568","EPHEMERIS_TYPE":"0","MEAN_MOTION":"15.06399131","RA_OF_ASC_NODE":"27.3300","EPOCH":"2022-11-12T14:42:45.252000","DECAY_DATE":null,"ARG_OF_PERICENTER":"52.4195","CLASSIFICATION_TYPE":"U"},{"MEAN_MOTION_DDOT":"0.0000000000000","MEAN_MOTION_DOT":"0.00009810","COUNTRY_CODE":"US","CENTER_NAME":"EARTH","FILE":"3652392","OBJECT_ID":"2021-038AT","OBJECT_NAME":"STARLINK-2573","INCLINATION":"53.0535","OBJECT_TYPE":"PAYLOAD","ELEMENT_SET_NO":"999","BSTAR":"0.00067636000000","PERIOD":"95.591","SEMIMAJOR_AXIS":"6925.314","REF_FRAME":"TEME","MEAN_ELEMENT_THEORY":"SGP4","TIME_SYSTEM":"UTC","APOAPSIS":"548.292","NORAD_CAT_ID":"48394","PERIAPSIS":"546.066","TLE_LINE1":"1 48394U 21038AT  22316.47664194  .00009810  00000-0  67636-3 0  9996","MEAN_MOTION":"15.06411346","EPHEMERIS_TYPE":"0","REV_AT_EPOCH":"8566","CLASSIFICATION_TYPE":"U","ARG_OF_PERICENTER":"66.3421","RA_OF_ASC_NODE":"27.9492","DECAY_DATE":null,"EPOCH":"2022-11-12T11:26:21.863616","ECCENTRICITY":"0.00016070","SITE":"AFETR","GP_ID":"217529886","LAUNCH_DATE":"2021-05-04","TLE_LINE2":"2 48394  53.0535  27.9492 0001607  66.3421 293.7737 15.06411346 85664","MEAN_ANOMALY":"293.7737","RCS_SIZE":"LARGE"},{"OBJECT_TYPE":"PAYLOAD","BSTAR":"0.00109640000000","ELEMENT_SET_NO":"999","INCLINATION":"53.0536","OBJECT_ID":"2021-038AU","OBJECT_NAME":"STARLINK-2574","FILE":"3652516","CENTER_NAME":"EARTH","COUNTRY_CODE":"US","MEAN_MOTION_DDOT":"0.0000000000000","MEAN_MOTION_DOT":"0.00016097","TLE_LINE1":"1 48395U 21038AU  22316.58730931  .00016097  00000-0  10964-2 0  9998","PERIAPSIS":"546.225","NORAD_CAT_ID":"48395","APOAPSIS":"548.062","TIME_SYSTEM":"UTC","MEAN_ELEMENT_THEORY":"SGP4","REF_FRAME":"TEME","SEMIMAJOR_AXIS":"6925.279","PERIOD":"95.591","EPOCH":"2022-11-12T14:05:43.524384","DECAY_DATE":null,"RA_OF_ASC_NODE":"28.0792","ARG_OF_PERICENTER":"77.8308","CLASSIFICATION_TYPE":"U","REV_AT_EPOCH":"8504","EPHEMERIS_TYPE":"0","MEAN_MOTION":"15.06422846","RCS_SIZE":"LARGE","MEAN_ANOMALY":"282.2829","TLE_LINE2":"2 48395  53.0536  28.0792 0001326  77.8308 282.2829 15.06422846 85044","LAUNCH_DATE":"2021-05-04","GP_ID":"217563300","SITE":"AFETR","ECCENTRICITY":"0.00013260"},{"CENTER_NAME":"EARTH","COUNTRY_CODE":"US","MEAN_MOTION_DOT":"0.00007344","MEAN_MOTION_DDOT":"0.0000000000000","OBJECT_NAME":"STARLINK-2575","OBJECT_ID":"2021-038AV","FILE":"3652392","BSTAR":"0.00051123000000","OBJECT_TYPE":"PAYLOAD","ELEMENT_SET_NO":"999","INCLINATION":"53.0548","SEMIMAJOR_AXIS":"6925.308","PERIOD":"95.591","APOAPSIS":"548.137","TIME_SYSTEM":"UTC","REF_FRAME":"TEME","MEAN_ELEMENT_THEORY":"SGP4","TLE_LINE1":"1 48396U 21038AV  22316.47295937  .00007344  00000-0  51123-3 0  9997","PERIAPSIS":"546.210","NORAD_CAT_ID":"48396","MEAN_MOTION":"15.06413167","REV_AT_EPOCH":"8566","EPHEMERIS_TYPE":"0","ARG_OF_PERICENTER":"67.2345","CLASSIFICATION_TYPE":"U","EPOCH":"2022-11-12T11:21:03.689568","DECAY_DATE":null,"RA_OF_ASC_NODE":"27.9743","SITE":"AFETR","ECCENTRICITY":"0.00013910","GP_ID":"217530888","LAUNCH_DATE":"2021-05-04","MEAN_ANOMALY":"292.8791","TLE_LINE2":"2 48396  53.0548  27.9743 0001391  67.2345 292.8791 15.06413167 85667","RCS_SIZE":"LARGE"}];
